{
  "type": "FeatureCollection",
  "features": [
    {
      "type": "Feature",
      "properties": {
        "norad_id": 61183,
        "name": "GSAT0226 (GALILEO 31)",
        "group": "gnss",
        "lat": -19.609298212204475,
        "lon": -148.10233170631344,
        "alt_km": 23227.08656136245,
        "timestamp": "2025-12-21T07:34:34.764745+00:00",
        "meta_object_name": "GSAT0226 (GALILEO 31)",
        "meta_object_id": "2024-167B",
        "meta_epoch": "2025-12-20T15:24:14.830848",
        "meta_mean_motion": 1.70473754,
        "meta_eccentricity": 0.000112,
        "meta_inclination": 55.2371,
        "meta_ra_of_asc_node": 226.2196,
        "meta_arg_of_pericenter": 107.1344,
        "meta_mean_anomaly": 175.3163,
        "meta_ephemeris_type": 0,
        "meta_classification_type": "U",
        "meta_norad_cat_id": 61183,
        "meta_element_set_no": 999,
        "meta_rev_at_epoch": 780,
        "meta_bstar": 0,
        "meta_mean_motion_dot": 7.2e-07,
        "meta_mean_motion_ddot": 0,
        "tle_line1": "1 61183U 24167B   25354.64183832  .00000072  00000+0  00000+0 0  9990",
        "tle_line2": "2 61183  55.2371 226.2196 0001120 107.1344 175.3163  1.70473754  7805"
      },
      "geometry": {
        "type": "Point",
        "coordinates": [
          -148.10233170631344,
          -19.609298212204475
        ]
      }
    },
    {
      "type": "Feature",
      "properties": {
        "norad_id": 61186,
        "name": "BEIDOU-3 M25 (C47)",
        "group": "gnss",
        "lat": 54.28765710188124,
        "lon": 29.126412256029123,
        "alt_km": 21534.285341998897,
        "timestamp": "2025-12-21T07:34:34.764756+00:00",
        "meta_object_name": "BEIDOU-3 M25 (C47)",
        "meta_object_id": "2024-168B",
        "meta_epoch": "2025-12-20T22:07:53.377248",
        "meta_mean_motion": 1.86230245,
        "meta_eccentricity": 0.00054545,
        "meta_inclination": 54.6348,
        "meta_ra_of_asc_node": 308.4372,
        "meta_arg_of_pericenter": 299.6064,
        "meta_mean_anomaly": 241.0883,
        "meta_ephemeris_type": 0,
        "meta_classification_type": "U",
        "meta_norad_cat_id": 61186,
        "meta_element_set_no": 999,
        "meta_rev_at_epoch": 846,
        "meta_bstar": 0,
        "meta_mean_motion_dot": -6.6e-07,
        "meta_mean_motion_ddot": 0,
        "tle_line1": "1 61186U 24168B   25354.92214557 -.00000066  00000+0  00000+0 0  9998",
        "tle_line2": "2 61186  54.6348 308.4372 0005454 299.6064 241.0883  1.86230245  8460"
      },
      "geometry": {
        "type": "Point",
        "coordinates": [
          29.126412256029123,
          54.28765710188124
        ]
      }
    },
    {
      "type": "Feature",
      "properties": {
        "norad_id": 61187,
        "name": "BEIDOU-3 M27 (C49)",
        "group": "gnss",
        "lat": -31.25526086538851,
        "lon": 153.89590093677265,
        "alt_km": 21535.613219471627,
        "timestamp": "2025-12-21T07:34:34.764766+00:00",
        "meta_object_name": "BEIDOU-3 M27 (C49)",
        "meta_object_id": "2024-168C",
        "meta_epoch": "2025-12-20T17:20:25.638144",
        "meta_mean_motion": 1.86230401,
        "meta_eccentricity": 0.00025275,
        "meta_inclination": 54.6304,
        "meta_ra_of_asc_node": 308.4277,
        "meta_arg_of_pericenter": 339.9286,
        "meta_mean_anomaly": 201.8737,
        "meta_ephemeris_type": 0,
        "meta_classification_type": "U",
        "meta_norad_cat_id": 61187,
        "meta_element_set_no": 999,
        "meta_rev_at_epoch": 593,
        "meta_bstar": 0,
        "meta_mean_motion_dot": -6.7e-07,
        "meta_mean_motion_ddot": 0,
        "tle_line1": "1 61187U 24168C   25354.72251896 -.00000067  00000+0  00000+0 0  9995",
        "tle_line2": "2 61187  54.6304 308.4277 0002527 339.9286 201.8737  1.86230401  5934"
      },
      "geometry": {
        "type": "Point",
        "coordinates": [
          153.89590093677265,
          -31.25526086538851
        ]
      }
    },
    {
      "type": "Feature",
      "properties": {
        "norad_id": 62339,
        "name": "GPS BIII-7  (PRN 01)",
        "group": "gnss",
        "lat": -21.840794497357614,
        "lon": -34.97547484173783,
        "alt_km": 20152.386736780267,
        "timestamp": "2025-12-21T07:34:34.764776+00:00",
        "meta_object_name": "GPS BIII-7  (PRN 01)",
        "meta_object_id": "2024-242A",
        "meta_epoch": "2025-12-18T08:46:28.895808",
        "meta_mean_motion": 2.00568182,
        "meta_eccentricity": 0.0012509,
        "meta_inclination": 54.922,
        "meta_ra_of_asc_node": 341.5124,
        "meta_arg_of_pericenter": 345.6877,
        "meta_mean_anomaly": 17.1618,
        "meta_ephemeris_type": 0,
        "meta_classification_type": "U",
        "meta_norad_cat_id": 62339,
        "meta_element_set_no": 999,
        "meta_rev_at_epoch": 763,
        "meta_bstar": 0,
        "meta_mean_motion_dot": -8.5e-07,
        "meta_mean_motion_ddot": 0,
        "tle_line1": "1 62339U 24242A   25352.36561222 -.00000085  00000+0  00000+0 0  9993",
        "tle_line2": "2 62339  54.9220 341.5124 0012509 345.6877  17.1618  2.00568182  7636"
      },
      "geometry": {
        "type": "Point",
        "coordinates": [
          -34.97547484173783,
          -21.840794497357614
        ]
      }
    },
    {
      "type": "Feature",
      "properties": {
        "norad_id": 62850,
        "name": "NVS-02 (IRNSS-1K)",
        "group": "gnss",
        "lat": 11.492519091662603,
        "lon": 112.5347607555742,
        "alt_km": 10284.954821810748,
        "timestamp": "2025-12-21T07:34:34.764789+00:00",
        "meta_object_name": "NVS-02 (IRNSS-1K)",
        "meta_object_id": "2025-020A",
        "meta_epoch": "2025-12-20T08:38:20.194080",
        "meta_mean_motion": 2.17600288,
        "meta_eccentricity": 0.7347343,
        "meta_inclination": 20.9647,
        "meta_ra_of_asc_node": 324.9017,
        "meta_arg_of_pericenter": 31.1731,
        "meta_mean_anomaly": 356.6243,
        "meta_ephemeris_type": 0,
        "meta_classification_type": "U",
        "meta_norad_cat_id": 62850,
        "meta_element_set_no": 999,
        "meta_rev_at_epoch": 708,
        "meta_bstar": 0.00012417,
        "meta_mean_motion_dot": 1.29e-06,
        "meta_mean_motion_ddot": 0,
        "tle_line1": "1 62850U 25020A   25354.35995595  .00000129  00000+0  12417-3 0  9998",
        "tle_line2": "2 62850  20.9647 324.9017 7347343  31.1731 356.6243  2.17600288  7082"
      },
      "geometry": {
        "type": "Point",
        "coordinates": [
          112.5347607555742,
          11.492519091662603
        ]
      }
    },
    {
      "type": "Feature",
      "properties": {
        "norad_id": 62876,
        "name": "QZS-6 (QZSS/PRN 200)",
        "group": "gnss",
        "lat": -0.05467953685641501,
        "lon": -65.67749626740036,
        "alt_km": 35779.8716900897,
        "timestamp": "2025-12-21T07:34:34.764800+00:00",
        "meta_object_name": "QZS-6 (QZSS/PRN 200)",
        "meta_object_id": "2025-023A",
        "meta_epoch": "2025-12-20T21:55:38.685216",
        "meta_mean_motion": 1.00272257,
        "meta_eccentricity": 0.00014984,
        "meta_inclination": 0.0502,
        "meta_ra_of_asc_node": 69.8334,
        "meta_arg_of_pericenter": 209.2047,
        "meta_mean_anomaly": 230.1578,
        "meta_ephemeris_type": 0,
        "meta_classification_type": "U",
        "meta_norad_cat_id": 62876,
        "meta_element_set_no": 999,
        "meta_rev_at_epoch": 317,
        "meta_bstar": 0,
        "meta_mean_motion_dot": -2.1e-06,
        "meta_mean_motion_ddot": 0,
        "tle_line1": "1 62876U 25023A   25354.91364219 -.00000210  00000+0  00000+0 0  9997",
        "tle_line2": "2 62876   0.0502  69.8334 0001498 209.2047 230.1578  1.00272257  3170"
      },
      "geometry": {
        "type": "Point",
        "coordinates": [
          -65.67749626740036,
          -0.05467953685641501
        ]
      }
    },
    {
      "type": "Feature",
      "properties": {
        "norad_id": 63130,
        "name": "COSMOS 2584 (704K)",
        "group": "gnss",
        "lat": 16.614767339313484,
        "lon": 86.86368213630305,
        "alt_km": 19146.644095750176,
        "timestamp": "2025-12-21T07:34:34.764810+00:00",
        "meta_object_name": "COSMOS 2584 (704K)",
        "meta_object_id": "2025-042A",
        "meta_epoch": "2025-12-18T11:25:35.911776",
        "meta_mean_motion": 2.13103072,
        "meta_eccentricity": 0.00077091,
        "meta_inclination": 64.979,
        "meta_ra_of_asc_node": 78.9506,
        "meta_arg_of_pericenter": 218.5301,
        "meta_mean_anomaly": 141.4378,
        "meta_ephemeris_type": 0,
        "meta_classification_type": "U",
        "meta_norad_cat_id": 63130,
        "meta_element_set_no": 999,
        "meta_rev_at_epoch": 619,
        "meta_bstar": 0,
        "meta_mean_motion_dot": -3.8e-07,
        "meta_mean_motion_ddot": 0,
        "tle_line1": "1 63130U 25042A   25352.47611009 -.00000038  00000+0  00000+0 0  9991",
        "tle_line2": "2 63130  64.9790  78.9506 0007709 218.5301 141.4378  2.13103072  6191"
      },
      "geometry": {
        "type": "Point",
        "coordinates": [
          86.86368213630305,
          16.614767339313484
        ]
      }
    }
  ]
}